[
    {
        "Altitude(m)": 714364.8483088007,
        "Argument of Periapsis(deg)": 0.007973084830638947,
        "Eccentricity": 0.0,
        "Inclination(deg)": 45.0,
        "Latitude(deg)": -36.629512057003424,
        "Longitude(deg)": -27.84580796791237,
        "Mean Anomaly(deg)": -122.8358483467634,
        "RAAN(deg)": 204.99247364097926,
        "Satellite Name": "Constellation 1 916",
        "Satellite Number": 916,
        "Semi-Major Axis(m)": 7083131.272910544,
        "Time(s)": 133
    },
    {
        "Altitude(m)": 714376.6872549892,
        "Argument of Periapsis(deg)": 0.008033032836884352,
        "Eccentricity": 0.0,
        "Inclination(deg)": 45.0,
        "Latitude(deg)": -36.65841995370048,
        "Longitude(deg)": -27.78365474498229,
        "Mean Anomaly(deg)": -122.77514720651342,
        "RAAN(deg)": 204.9924170518137,
        "Satellite Name": "Constellation 1 916",
        "Satellite Number": 916,
        "Semi-Major Axis(m)": 7083131.272910544,
        "Time(s)": 134
    },
    {
        "Altitude(m)": 714388.5126201663,
        "Argument of Periapsis(deg)": 0.008092980843129758,
        "Eccentricity": 0.0,
        "Inclination(deg)": 45.0,
        "Latitude(deg)": -36.687290781682634,
        "Longitude(deg)": -27.721452135054562,
        "Mean Anomaly(deg)": -122.71444606626358,
        "RAAN(deg)": 204.99236046264812,
        "Satellite Name": "Constellation 1 916",
        "Satellite Number": 916,
        "Semi-Major Axis(m)": 7083131.272910544,
        "Time(s)": 135
    },
    {
        "Altitude(m)": 714400.3243616055,
        "Argument of Periapsis(deg)": 0.008152928849375162,
        "Eccentricity": 0.0,
        "Inclination(deg)": 45.0,
        "Latitude(deg)": -36.7161244754148,
        "Longitude(deg)": -27.65920011253675,
        "Mean Anomaly(deg)": -122.65374492601372,
        "RAAN(deg)": 204.99230387348257,
        "Satellite Name": "Constellation 1 916",
        "Satellite Number": 916,
        "Semi-Major Axis(m)": 7083131.272910544,
        "Time(s)": 136
    },
    {
        "Altitude(m)": 714412.122436641,
        "Argument of Periapsis(deg)": 0.008212876855620568,
        "Eccentricity": 0.0,
        "Inclination(deg)": 45.0,
        "Latitude(deg)": -36.744920969311806,
        "Longitude(deg)": -27.596898652109417,
        "Mean Anomaly(deg)": -122.59304378576383,
        "RAAN(deg)": 204.992247284317,
        "Satellite Name": "Constellation 1 916",
        "Satellite Number": 916,
        "Semi-Major Axis(m)": 7083131.272910544,
        "Time(s)": 137
    },
    {
        "Altitude(m)": 714423.9068026489,
        "Argument of Periapsis(deg)": 0.008272824861865974,
        "Eccentricity": 0.0,
        "Inclination(deg)": 45.0,
        "Latitude(deg)": -36.77368019773938,
        "Longitude(deg)": -27.534547728726384,
        "Mean Anomaly(deg)": -122.53234264551389,
        "RAAN(deg)": 204.9921906951514,
        "Satellite Name": "Constellation 1 916",
        "Satellite Number": 916,
        "Semi-Major Axis(m)": 7083131.272910544,
        "Time(s)": 138
    },
    {
        "Altitude(m)": 714435.6774170444,
        "Argument of Periapsis(deg)": 0.00833277286811138,
        "Eccentricity": 0.0,
        "Inclination(deg)": 45.0,
        "Latitude(deg)": -36.80240209501394,
        "Longitude(deg)": -27.472147317616944,
        "Mean Anomaly(deg)": -122.47164150526405,
        "RAAN(deg)": 204.99213410598585,
        "Satellite Name": "Constellation 1 916",
        "Satellite Number": 916,
        "Semi-Major Axis(m)": 7083131.272910544,
        "Time(s)": 139
    },
    {
        "Altitude(m)": 714447.4342373005,
        "Argument of Periapsis(deg)": 0.008392720874356788,
        "Eccentricity": 0.0,
        "Inclination(deg)": 45.0,
        "Latitude(deg)": -36.831086595403235,
        "Longitude(deg)": -27.409697394286617,
        "Mean Anomaly(deg)": -122.41094036501411,
        "RAAN(deg)": 204.99207751682027,
        "Satellite Name": "Constellation 1 916",
        "Satellite Number": 916,
        "Semi-Major Axis(m)": 7083131.272910544,
        "Time(s)": 140
    },
    {
        "Altitude(m)": 714459.1772209182,
        "Argument of Periapsis(deg)": 0.008452668880602192,
        "Eccentricity": 0.0,
        "Inclination(deg)": 45.0,
        "Latitude(deg)": -36.8597336331268,
        "Longitude(deg)": -27.34719810261589,
        "Mean Anomaly(deg)": -122.35023922476422,
        "RAAN(deg)": 204.99202092765472,
        "Satellite Name": "Constellation 1 916",
        "Satellite Number": 916,
        "Semi-Major Axis(m)": 7083131.272910544,
        "Time(s)": 141
    },
    {
        "Altitude(m)": 714470.906325459,
        "Argument of Periapsis(deg)": 0.008512616886847598,
        "Eccentricity": 0.0,
        "Inclination(deg)": 45.0,
        "Latitude(deg)": -36.8883431423551,
        "Longitude(deg)": -27.284649082473262,
        "Mean Anomaly(deg)": -122.28953808451426,
        "RAAN(deg)": 204.99196433848914,
        "Satellite Name": "Constellation 1 916",
        "Satellite Number": 916,
        "Semi-Major Axis(m)": 7083131.272910544,
        "Time(s)": 142
    },
    {
        "Altitude(m)": 714482.6215085262,
        "Argument of Periapsis(deg)": 0.008572564893093004,
        "Eccentricity": 0.0,
        "Inclination(deg)": 45.0,
        "Latitude(deg)": -36.91691505721153,
        "Longitude(deg)": -27.222050478299167,
        "Mean Anomaly(deg)": -122.22883694426442,
        "RAAN(deg)": 204.99190774932356,
        "Satellite Name": "Constellation 1 916",
        "Satellite Number": 916,
        "Semi-Major Axis(m)": 7083131.272910544,
        "Time(s)": 143
    },
    {
        "Altitude(m)": 714494.3227277659,
        "Argument of Periapsis(deg)": 0.008632512899338408,
        "Eccentricity": 0.0,
        "Inclination(deg)": 45.0,
        "Latitude(deg)": -36.94544931177169,
        "Longitude(deg)": -27.1594022667189,
        "Mean Anomaly(deg)": -122.16813580401454,
        "RAAN(deg)": 204.991851160158,
        "Satellite Name": "Constellation 1 916",
        "Satellite Number": 916,
        "Semi-Major Axis(m)": 7083131.272910544,
        "Time(s)": 144
    },
    {
        "Altitude(m)": 714506.009940875,
        "Argument of Periapsis(deg)": 0.008692460905583814,
        "Eccentricity": 0.0,
        "Inclination(deg)": 45.0,
        "Latitude(deg)": -36.973945840063976,
        "Longitude(deg)": -27.096704424640837,
        "Mean Anomaly(deg)": -122.1074346637646,
        "RAAN(deg)": 204.99179457099243,
        "Satellite Name": "Constellation 1 916",
        "Satellite Number": 916,
        "Semi-Major Axis(m)": 7083131.272910544,
        "Time(s)": 145
    },
    {
        "Altitude(m)": 714517.6831055894,
        "Argument of Periapsis(deg)": 0.00875240891182922,
        "Eccentricity": 0.0,
        "Inclination(deg)": 45.0,
        "Latitude(deg)": -37.00240457606969,
        "Longitude(deg)": -27.03395692925857,
        "Mean Anomaly(deg)": -122.04673352351472,
        "RAAN(deg)": 204.99173798182687,
        "Satellite Name": "Constellation 1 916",
        "Satellite Number": 916,
        "Semi-Major Axis(m)": 7083131.272910544,
        "Time(s)": 146
    },
    {
        "Altitude(m)": 714529.3421797056,
        "Argument of Periapsis(deg)": 0.008812356918074627,
        "Eccentricity": 0.0,
        "Inclination(deg)": 45.0,
        "Latitude(deg)": -37.030825453723665,
        "Longitude(deg)": -26.97115975805142,
        "Mean Anomaly(deg)": -121.9860323832648,
        "RAAN(deg)": 204.99168139266126,
        "Satellite Name": "Constellation 1 916",
        "Satellite Number": 916,
        "Semi-Major Axis(m)": 7083131.272910544,
        "Time(s)": 147
    },
    {
        "Altitude(m)": 714540.9871210555,
        "Argument of Periapsis(deg)": 0.008872304924320031,
        "Eccentricity": 0.0,
        "Inclination(deg)": 45.0,
        "Latitude(deg)": -37.059208406914614,
        "Longitude(deg)": -26.908313056883593,
        "Mean Anomaly(deg)": -121.9253312430149,
        "RAAN(deg)": 204.9916248034957,
        "Satellite Name": "Constellation 1 916",
        "Satellite Number": 916,
        "Semi-Major Axis(m)": 7083131.272910544,
        "Time(s)": 148
    },
    {
        "Altitude(m)": 714552.6178875205,
        "Argument of Periapsis(deg)": 0.008932252930565437,
        "Eccentricity": 0.0,
        "Inclination(deg)": 45.0,
        "Latitude(deg)": -37.087553369484446,
        "Longitude(deg)": -26.845416467616637,
        "Mean Anomaly(deg)": -121.86463010276503,
        "RAAN(deg)": 204.99156821433013,
        "Satellite Name": "Constellation 1 916",
        "Satellite Number": 916,
        "Semi-Major Axis(m)": 7083131.272910544,
        "Time(s)": 149
    },
    {
        "Altitude(m)": 714564.2344370289,
        "Argument of Periapsis(deg)": 0.008992200936810843,
        "Eccentricity": 0.0,
        "Inclination(deg)": 45.0,
        "Latitude(deg)": -37.11586027523031,
        "Longitude(deg)": -26.782470136693796,
        "Mean Anomaly(deg)": -121.8039289625151,
        "RAAN(deg)": 204.99151162516458,
        "Satellite Name": "Constellation 1 916",
        "Satellite Number": 916,
        "Semi-Major Axis(m)": 7083131.272910544,
        "Time(s)": 150
    },
    {
        "Altitude(m)": 714575.8367275603,
        "Argument of Periapsis(deg)": 0.009052148943056249,
        "Eccentricity": 0.0,
        "Inclination(deg)": 45.0,
        "Latitude(deg)": -37.14412905790366,
        "Longitude(deg)": -26.71947404275298,
        "Mean Anomaly(deg)": -121.74322782226521,
        "RAAN(deg)": 204.99145503599902,
        "Satellite Name": "Constellation 1 916",
        "Satellite Number": 916,
        "Semi-Major Axis(m)": 7083131.272910544,
        "Time(s)": 151
    }
]